OBJECT_NAME,OBJECT_ID,EPOCH,MEAN_MOTION,ECCENTRICITY,INCLINATION,RA_OF_ASC_NODE,ARG_OF_PERICENTER,MEAN_ANOMALY,EPHEMERIS_TYPE,CLASSIFICATION_TYPE,NORAD_CAT_ID,ELEMENT_SET_NO,REV_AT_EPOCH,BSTAR,MEAN_MOTION_DOT,MEAN_MOTION_DDOT
SIRION PATHFINDER-2,2018-099B,2026-06-15T01:37:17.309280,15.14533187,.0007323,97.4254,215.1753,314.0244,46.0384,0,U,43759,999,41230,.24362E-3,.4427E-4,0
CORVUS BC4,2018-099K,2026-06-15T01:42:36.622080,15.12480609,.0008503,97.4064,209.1132,19.7922,340.3637,0,U,43767,999,41208,.25989E-3,.4462E-4,0
M2 PATHFINDER,2020-037E,2026-06-15T01:14:38.105088,15.04669716,.0012363,97.8149,357.2598,152.5507,207.6374,0,U,45727,999,32517,.13862E-3,.1888E-4,0
NETSAT-4,2020-068U,2026-06-14T23:39:40.616928,15.43802576,.0004154,97.8597,174.0498,348.1192,11.9955,0,U,46504,999,31543,.3646E-3,.16429E-3,0
NETSAT-3,2020-068V,2026-06-14T23:46:16.582080,15.42612738,.0004501,97.8646,172.2736,9.9261,350.2073,0,U,46505,999,31534,.38784E-3,.16798E-3,0
NETSAT-1,2020-068W,2026-06-14T23:36:30.059136,15.34599415,.0005291,97.8739,166.6236,39.0774,321.0848,0,U,46506,999,31496,.33564E-3,.11173E-3,0
NETSAT-2,2020-068X,2026-06-14T23:08:30.213312,15.45916537,.0003742,97.8608,173.9130,33.1774,326.9708,0,U,46507,999,31539,.43051E-3,.20875E-3,0
GREENCUBE (IO-117),2022-080E,2026-06-13T07:02:28.697280,6.42583230,.00089108,70.1444,299.5995,290.4576,69.5127,0,U,53109,999,9181,0,-.3E-7,0
SITRO-AIS 5 (KATYS),2023-091L,2026-06-15T04:08:36.400992,15.29417627,.0012802,97.5066,230.0526,109.7201,250.5421,0,U,57176,999,16403,.35492E-3,.10074E-3,0
SITRO-AIS 6 (CHIRKIN),2023-091AC,2026-06-15T03:31:36.306336,15.25902754,.0013097,97.5072,229.1566,112.7159,247.5465,0,U,57192,999,16397,.37645E-3,.9603E-4,0
SITRO-AIS 8 (ANOKHIN),2023-091AD,2026-06-15T04:38:11.272128,15.32089193,.0011814,97.5062,231.6539,106.0238,254.2306,0,U,57193,999,16414,.39833E-3,.12294E-3,0
SITRO-AIS 7 (FARTUSHNIY),2023-091AE,2026-06-15T03:35:32.398656,15.25589823,.0012938,97.5070,228.9854,113.6715,246.5882,0,U,57194,999,16396,.33338E-3,.8415E-4,0
SITRO-AIS 10 (BURDAEV),2023-091AK,2026-06-15T04:02:01.319712,15.38545997,.0007643,97.5088,236.6616,86.2092,274.0027,0,U,57199,999,16445,.43672E-3,.16563E-3,0
SITRO-AIS 9 (SHCHUKIN),2023-091AM,2026-06-15T04:39:06.746112,15.38056901,.0007878,97.5085,236.4196,86.3283,273.8863,0,U,57201,999,16444,.42147E-3,.15728E-3,0
SITRO-AIS 12 (SMIRENNIY),2023-091AQ,2026-06-15T04:26:09.204000,15.38348571,.0007436,97.5098,236.8764,81.3128,278.8959,0,U,57204,999,16446,.43206E-3,.16279E-3,0
SITRO-AIS 11 (SHEFFER),2023-091AU,2026-06-15T03:12:37.409184,15.38774250,.0007323,97.5097,237.0693,81.5105,278.6970,0,U,57208,999,16447,.50365E-3,.19262E-3,0
SITRO-AIS 25,2024-039R,2026-06-15T03:57:53.811360,14.93505208,.014374,95.3911,233.7029,335.8960,23.5582,0,U,59066,999,12442,.1786E-3,.2268E-4,0
SITRO-AIS 26,2024-039S,2026-06-15T03:59:28.590432,14.93301212,.0144089,95.3912,233.6018,336.4694,22.9981,0,U,59067,999,12441,.17394E-3,.2197E-4,0
SITRO-AIS 27,2024-039T,2026-06-15T04:53:55.009824,14.93721559,.0143001,95.3916,233.8984,334.9742,24.4596,0,U,59068,999,12444,.2151E-3,.2749E-4,0
SITRO-AIS 28,2024-039U,2026-06-15T04:21:29.761344,14.93753833,.0142946,95.3914,233.9301,334.8516,24.5793,0,U,59071,999,12444,.21523E-3,.2753E-4,0
GRBBETA,2024-128C,2026-06-14T21:31:53.269248,15.06627135,.0040926,61.9891,224.3011,134.1963,226.2505,0,U,60237,999,10592,.22262E-3,.3158E-4,0
OOV-CUBE (TUBSAT-30),2024-128F,2026-06-14T17:26:18.436128,15.02765736,.0044922,61.9946,234.1532,133.1554,227.3306,0,U,60240,999,10574,.16016074E-3,.1982E-4,0
ROBUSTA-3A (MEDITERRANEE),2024-128J,2026-06-14T11:44:05.147808,15.11651785,.00416343,61.9855,217.7867,127.6328,232.8557,0,U,60243,999,10601,.35464548E-3,.5962E-4,0
LASARSAT,2024-247Q,2026-06-13T14:48:20.082240,15.46168743,.0008375,44.9751,282.2745,311.5212,48.4959,0,U,62391,999,8276,.65515E-3,.32689E-3,0
CROCUBE,2024-247T,2026-06-14T14:05:15.116064,15.48102542,.0008187,44.9722,274.1999,320.7516,39.2780,0,U,62394,999,8294,.65094E-3,.34757E-3,0
FORESAIL-1 PRIME,2025-276DS,2026-06-15T03:38:26.750400,15.18685264,.0003939,97.4203,239.4592,109.0976,251.0685,0,U,66778,999,3009,.21912E-3,.4477E-4,0
KNACKSAT-2,1998-067XZ,2026-06-14T15:50:06.120384,15.59771864,.00094076,51.6308,307.1872,204.1419,155.9135,0,U,67683,999,1988,.5515425E-3,.44887E-3,0
