SIRION PATHFINDER-2     
1 43759U 18099B   26166.06756145  .00004427  00000+0  24362-3 0  9996
2 43759  97.4254 215.1753 0007323 314.0244  46.0384 15.14533187412301
CORVUS BC4              
1 43767U 18099K   26166.07125720  .00004462  00000+0  25989-3 0  9990
2 43767  97.4064 209.1132 0008503  19.7922 340.3637 15.12480609412080
M2 PATHFINDER           
1 45727U 20037E   26166.05182992  .00001888  00000+0  13862-3 0  9991
2 45727  97.8149 357.2598 0012363 152.5507 207.6374 15.04669716325176
NETSAT-4                
1 46504U 20068U   26165.98588677  .00016429  00000+0  36460-3 0  9996
2 46504  97.8597 174.0498 0004154 348.1192  11.9955 15.43802576315438
NETSAT-3                
1 46505U 20068V   26165.99046970  .00016798  00000+0  38784-3 0  9993
2 46505  97.8646 172.2736 0004501   9.9261 350.2073 15.42612738315342
NETSAT-1                
1 46506U 20068W   26165.98368124  .00011173  00000+0  33564-3 0  9994
2 46506  97.8739 166.6236 0005291  39.0774 321.0848 15.34599415314968
NETSAT-2                
1 46507U 20068X   26165.96423858  .00020875  00000+0  43051-3 0  9990
2 46507  97.8608 173.9130 0003742  33.1774 326.9708 15.45916537315399
GREENCUBE (IO-117)      
1 53109U 22080E   26164.29338770 -.00000003  00000+0  00000+0 0  9990
2 53109  70.1444 299.5995 0008910 290.4576  69.5127  6.42583230 91811
SITRO-AIS 5 (KATYS)     
1 57176U 23091L   26166.17264353  .00010074  00000+0  35492-3 0  9990
2 57176  97.5066 230.0526 0012802 109.7201 250.5421 15.29417627164039
SITRO-AIS 6 (CHIRKIN)   
1 57192U 23091AC  26166.14694799  .00009603  00000+0  37645-3 0  9994
2 57192  97.5072 229.1566 0013097 112.7159 247.5465 15.25902754163972
SITRO-AIS 8 (ANOKHIN)   
1 57193U 23091AD  26166.19318602  .00012294  00000+0  39833-3 0  9997
2 57193  97.5062 231.6539 0011814 106.0238 254.2306 15.32089193164149
SITRO-AIS 7 (FARTUSHNIY)
1 57194U 23091AE  26166.14968054  .00008415  00000+0  33338-3 0  9999
2 57194  97.5070 228.9854 0012938 113.6715 246.5882 15.25589823163969
SITRO-AIS 10 (BURDAEV)  
1 57199U 23091AK  26166.16807083  .00016563  00000+0  43672-3 0  9995
2 57199  97.5088 236.6616 0007643  86.2092 274.0027 15.38545997164455
SITRO-AIS 9 (SHCHUKIN)  
1 57201U 23091AM  26166.19382808  .00015728  00000+0  42147-3 0  9993
2 57201  97.5085 236.4196 0007878  86.3283 273.8863 15.38056901164446
SITRO-AIS 12 (SMIRENNIY)
1 57204U 23091AQ  26166.18482875  .00016279  00000+0  43206-3 0  9999
2 57204  97.5098 236.8764 0007436  81.3128 278.8959 15.38348571164461
SITRO-AIS 11 (SHEFFER)  
1 57208U 23091AU  26166.13376631  .00019262  00000+0  50365-3 0  9999
2 57208  97.5097 237.0693 0007323  81.5105 278.6970 15.38774250164479
SITRO-AIS 25            
1 59066U 24039R   26166.16520615  .00002268  00000+0  17860-3 0  9993
2 59066  95.3911 233.7029 0143740 335.8960  23.5582 14.93505208124420
SITRO-AIS 26            
1 59067U 24039S   26166.16630313  .00002197  00000+0  17394-3 0  9994
2 59067  95.3912 233.6018 0144089 336.4694  22.9981 14.93301212124411
SITRO-AIS 27            
1 59068U 24039T   26166.20410891  .00002749  00000+0  21510-3 0  9995
2 59068  95.3916 233.8984 0143001 334.9742  24.4596 14.93721559124442
SITRO-AIS 28            
1 59071U 24039U   26166.18159446  .00002753  00000+0  21523-3 0  9991
2 59071  95.3914 233.9301 0142946 334.8516  24.5793 14.93753833124443
GRBBETA                 
1 60237U 24128C   26165.89714432  .00003158  00000+0  22262-3 0  9996
2 60237  61.9891 224.3011 0040926 134.1963 226.2505 15.06627135105920
OOV-CUBE (TUBSAT-30)    
1 60240U 24128F   26165.72660227  .00001982  00000+0  16016-3 0  9997
2 60240  61.9946 234.1532 0044922 133.1554 227.3306 15.02765736105744
ROBUSTA-3A (MEDITERRAN*)
1 60243U 24128J   26165.48894847  .00005962  00000+0  35465-3 0  9991
2 60243  61.9855 217.7867 0041634 127.6328 232.8557 15.11651785106016
LASARSAT                
1 62391U 24247Q   26164.61689910  .00032689  00000+0  65515-3 0  9991
2 62391  44.9751 282.2745 0008375 311.5212  48.4959 15.46168743 82768
CROCUBE                 
1 62394U 24247T   26165.58698051  .00034757  00000+0  65094-3 0  9997
2 62394  44.9722 274.1999 0008187 320.7516  39.2780 15.48102542 82947
FORESAIL-1 PRIME        
1 66778U 25276DS  26166.15169850  .00004477  00000+0  21912-3 0  9991
2 66778  97.4203 239.4592 0003939 109.0976 251.0685 15.18685264 30096
KNACKSAT-2              
1 67683U 98067XZ  26165.65979306  .00044887  00000+0  55154-3 0  9998
2 67683  51.6308 307.1872 0009407 204.1419 155.9135 15.59771864 19882
